$$SOE
2460154.500000000, A.D. 2023-Jul-29 00:00:00.0000, 1.880081647081542E+08, 4.417918778974584E+08, -3.418264004156089E+07,
2460161.500000000, A.D. 2023-Aug-05 00:00:00.0000, 1.784163873275346E+08, 4.433961924580400E+08, -3.172133524328217E+07,
2460168.500000000, A.D. 2023-Aug-12 00:00:00.0000, 1.687459536175962E+08, 4.448045981213309E+08, -2.924601127074856E+07,
2460175.500000000, A.D. 2023-Aug-19 00:00:00.0000, 1.590000157353199E+08, 4.460135387155477E+08, -2.675756985823163E+07,
2460182.500000000, A.D. 2023-Aug-26 00:00:00.0000, 1.491818620119094E+08, 4.470194564698554E+08, -2.425694693669719E+07,
2460189.500000000, A.D. 2023-Sep-02 00:00:00.0000, 1.392949213565835E+08, 4.478187959541975E+08, -2.174511362985650E+07,
2460196.500000000, A.D. 2023-Sep-09 00:00:00.0000, 1.293427677075128E+08, 4.484080082430163E+08, -1.922307726022094E+07,
2460203.500000000, A.D. 2023-Sep-16 00:00:00.0000, 1.193291246842973E+08, 4.487835552634672E+08, -1.669188238127685E+07,
2460210.500000000, A.D. 2023-Sep-23 00:00:00.0000, 1.092578708425716E+08, 4.489419146344119E+08, -1.415261184602481E+07,
2460217.500000000, A.D. 2023-Sep-30 00:00:00.0000, 9.913304517422479E+07, 4.488795862071218E+08, -1.160638777850190E+07,
2460224.500000000, A.D. 2023-Oct-07 00:00:00.0000, 8.895885048096889E+07, 4.485930997829707E+08, -9.054372271130294E+06,
2460231.500000000, A.D. 2023-Oct-14 00:00:00.0000, 7.873965563789521E+07, 4.480790207120182E+08, -6.497768167412341E+06,
2460238.500000000, A.D. 2023-Oct-21 00:00:00.0000, 6.847999995077361E+07, 4.473339549962977E+08, -3.937820088259161E+06,
2460245.500000000, A.D. 2023-Oct-28 00:00:00.0000, 5.818459815822357E+07, 4.463545561768932E+08, -1.375815379268855E+06,
2460252.500000000, A.D. 2023-Nov-04 00:00:00.0000, 4.785834480006713E+07, 4.451375332490864E+08, 1.186915081074297E+06,
2460259.500000000, A.D. 2023-Nov-11 00:00:00.0000, 3.750631809602942E+07, 4.436796590194311E+08, 3.748996156033278E+06,
2460266.500000000, A.D. 2023-Nov-18 00:00:00.0000, 2.713378351694009E+07, 4.419777788544051E+08, 6.309007792360842E+06,
2460273.500000000, A.D. 2023-Nov-25 00:00:00.0000, 1.674619708076940E+07, 4.400288198576081E+08, 8.865484434644580E+06,
2460280.500000000, A.D. 2023-Dec-02 00:00:00.0000, 6.349208359059881E+06, 4.378298004784179E+08, 1.141691451980430E+07,
2460287.500000000, A.D. 2023-Dec-09 00:00:00.0000, -4.051336772839326E+06, 4.353778405051870E+08, 1.396174005159602E+07,
2460294.500000000, A.D. 2023-Dec-16 00:00:00.0000, -1.444939340109194E+07, 4.326701714637957E+08, 1.649835624231115E+07,
2460301.500000000, A.D. 2023-Dec-23 00:00:00.0000, -2.483871455613525E+07, 4.297041481132924E+08, 1.902511125906762E+07,
2460308.500000000, A.D. 2023-Dec-30 00:00:00.0000, -3.521284930629332E+07, 4.264772620883694E+08, 2.154030629703763E+07,
2460315.500000000, A.D. 2024-Jan-06 00:00:00.0000, -4.556514379035401E+07, 4.229871553206134E+08, 2.404219596327931E+07,
2460322.500000000, A.D. 2024-Jan-13 00:00:00.0000, -5.588874207927017E+07, 4.192316314174768E+08, 2.652898854718655E+07,
2460329.500000000, A.D. 2024-Jan-20 00:00:00.0000, -6.617658571067186E+07, 4.152086680710626E+08, 2.899884633270517E+07,
2460336.500000000, A.D. 2024-Jan-27 00:00:00.0000, -7.642141399119839E+07, 4.109164311313389E+08, 3.144988620732427E+07,
2460343.500000000, A.D. 2024-Feb-03 00:00:00.0000, -8.661576556342714E+07, 4.063532893685833E+08, 3.388018054575273E+07,
2460350.500000000, A.D. 2024-Feb-10 00:00:00.0000, -9.675198103065126E+07, 4.015178296006517E+08, 3.628775833562472E+07,
2460357.500000000, A.D. 2024-Feb-17 00:00:00.0000, -1.068222065721676E+08, 3.964088721524271E+08, 3.867060654990989E+07,
2460364.500000000, A.D. 2024-Feb-24 00:00:00.0000, -1.168183985846128E+08, 3.910254866130818E+08, 4.102667178058282E+07,
2460371.500000000, A.D. 2024-Mar-02 00:00:00.0000, -1.267323293910901E+08, 3.853670078000971E+08, 4.335386214449067E+07,
2460378.500000000, A.D. 2024-Mar-09 00:00:00.0000, -1.365555939493171E+08, 3.794330517987643E+08, 4.565004945921236E+07,
2460385.500000000, A.D. 2024-Mar-16 00:00:00.0000, -1.462796172317835E+08, 3.732235321958628E+08, 4.791307168358195E+07,
2460392.500000000, A.D. 2024-Mar-23 00:00:00.0000, -1.558956624474590E+08, 3.667386775285617E+08, 5.014073573682883E+07,
2460399.500000000, A.D. 2024-Mar-30 00:00:00.0000, -1.653948424071616E+08, 3.599790498254676E+08, 5.233082091229859E+07,
2460406.500000000, A.D. 2024-Apr-06 00:00:00.0000, -1.747681338280891E+08, 3.529455607622597E+08, 5.448108259726377E+07,
2460413.500000000, A.D. 2024-Apr-13 00:00:00.0000, -1.840063910735676E+08, 3.456394861431833E+08, 5.658925604919595E+07,
2460420.500000000, A.D. 2024-Apr-20 00:00:00.0000, -1.931003603227018E+08, 3.380624812562834E+08, 5.865306054087678E+07,
2460427.500000000, A.D. 2024-Apr-27 00:00:00.0000, -2.020406957152495E+08, 3.302165964043458E+08, 6.067020397098562E+07,
2460434.500000000, A.D. 2024-May-04 00:00:00.0000, -2.108179773988439E+08, 3.221042917589174E+08, 6.263838787421840E+07,
2460441.500000000, A.D. 2024-May-11 00:00:00.0000, -2.194227312427323E+08, 3.137284512776688E+08, 6.455531279672784E+07,
2460448.500000000, A.D. 2024-May-18 00:00:00.0000, -2.278454501237681E+08, 3.050923955424232E+08, 6.641868402320445E+07,
2460455.500000000, A.D. 2024-May-25 00:00:00.0000, -2.360766167309413E+08, 2.961998933412610E+08, 6.822621764052795E+07,
2460462.500000000, A.D. 2024-Jun-01 00:00:00.0000, -2.441067277814052E+08, 2.870551717641488E+08, 6.997564691095741E+07,
2460469.500000000, A.D. 2024-Jun-08 00:00:00.0000, -2.519263193350314E+08, 2.776629246142476E+08, 7.166472890865009E+07,
2460476.500000000, A.D. 2024-Jun-15 00:00:00.0000, -2.595259927212356E+08, 2.680283195055718E+08, 7.329125140062590E+07,
2460483.500000000, A.D. 2024-Jun-22 00:00:00.0000, -2.668964419769276E+08, 2.581570046517933E+08, 7.485304012889040E+07,
2460490.500000000, A.D. 2024-Jun-29 00:00:00.0000, -2.740284847898387E+08, 2.480551133646367E+08, 7.634796650361849E+07,
2460497.500000000, A.D. 2024-Jul-06 00:00:00.0000, -2.809130941468182E+08, 2.377292636386648E+08, 7.777395522058026E+07,
2460504.500000000, A.D. 2024-Jul-13 00:00:00.0000, -2.875414285589778E+08, 2.271865554999974E+08, 7.912899180543622E+07,
2460511.500000000, A.D. 2024-Jul-20 00:00:00.0000, -2.939048626553949E+08, 2.164345671388150E+08, 8.041113030759913E+07,
2460518.500000000, A.D. 2024-Jul-27 00:00:00.0000, -2.999950185858853E+08, 2.054813487583473E+08, 8.161850106733306E+07,
2460525.500000000, A.D. 2024-Aug-03 00:00:00.0000, -3.058037977256480E+08, 1.943354136753589E+08, 8.274931843742046E+07,
2460532.500000000, A.D. 2024-Aug-10 00:00:00.0000, -3.113234122706349E+08, 1.830057266015668E+08, 8.380188837886980E+07,
2460539.500000000, A.D. 2024-Aug-17 00:00:00.0000, -3.165464164218343E+08, 1.715016890925791E+08, 8.477461586291094E+07,
2460546.500000000, A.D. 2024-Aug-24 00:00:00.0000, -3.214657368666557E+08, 1.598331221405652E+08, 8.566601200926885E+07,
2460553.500000000, A.D. 2024-Aug-31 00:00:00.0000, -3.260747021697456E+08, 1.480102458806884E+08, 8.647470087845564E+07,
2460560.500000000, A.D. 2024-Sep-07 00:00:00.0000, -3.303670704316834E+08, 1.360436566012391E+08, 8.719942582763691E+07,
2460567.500000000, A.D. 2024-Sep-14 00:00:00.0000, -3.343370548560071E+08, 1.239443021486036E+08, 8.783905543712652E+07,
2460574.500000000, A.D. 2024-Sep-21 00:00:00.0000, -3.379793489882071E+08, 1.117234562671928E+08, 8.839258916378556E+07,
2460581.500000000, A.D. 2024-Sep-28 00:00:00.0000, -3.412891518640136E+08, 9.939268880922228E+07, 8.885916244409859E+07,
2460588.500000000, A.D. 2024-Oct-05 00:00:00.0000, -3.442621891593381E+08, 8.696383201254514E+07, 8.923805085661709E+07,
2460595.500000000, A.D. 2024-Oct-12 00:00:00.0000, -3.468947304808992E+08, 7.444894604823679E+07, 8.952867357031409E+07,
2460602.500000000, A.D. 2024-Oct-19 00:00:00.0000, -3.491836043581381E+08, 6.186028381345283E+07, 8.973059617596318E+07,
2460609.500000000, A.D. 2024-Oct-26 00:00:00.0000, -3.511262108102699E+08, 4.921025444211657E+07, 8.984353280653916E+07,
2460616.500000000, A.D. 2024-Nov-02 00:00:00.0000, -3.527205311013538E+08, 3.651138567985783E+07, 8.986734748736314E+07,
2460623.500000000, A.D. 2024-Nov-09 00:00:00.0000, -3.539651344896196E+08, 2.377628545246036E+07, 8.980205469359955E+07,
2460630.500000000, A.D. 2024-Nov-16 00:00:00.0000, -3.548591818841384E+08, 1.101760294596428E+07, 8.964781910684113E+07,
2460637.500000000, A.D. 2024-Nov-23 00:00:00.0000, -3.554024263382776E+08, -1.752010528785132E+06, 8.940495456608871E+07,
2460644.500000000, A.D. 2024-Nov-30 00:00:00.0000, -3.555952101853838E+08, -1.451994060736360E+07, 8.907392220365813E+07,
2460651.500000000, A.D. 2024-Dec-07 00:00:00.0000, -3.554384584474130E+08, -2.727364814121129E+07, 8.865532778402483E+07,
2460658.500000000, A.D. 2024-Dec-14 00:00:00.0000, -3.549336692902132E+08, -4.000070513539188E+07, 8.814991843927990E+07,
2460665.500000000, A.D. 2024-Dec-21 00:00:00.0000, -3.540829039638213E+08, -5.268882930608798E+07, 8.755857895132455E+07,
2460672.500000000, A.D. 2024-Dec-28 00:00:00.0000, -3.528887744092063E+08, -6.532591995494451E+07, 8.688232720481271E+07,
2460679.500000000, A.D. 2025-Jan-04 00:00:00.0000, -3.513544261138755E+08, -7.790009253392157E+07, 8.612230882006976E+07,
2460686.500000000, A.D. 2025-Jan-11 00:00:00.0000, -3.494835182359824E+08, -9.039971001747642E+07, 8.527979132501623E+07,
2460693.500000000, A.D. 2025-Jan-18 00:00:00.0000, -3.472802021331842E+08, -1.028134118102679E+08, 8.435615793574688E+07,
2460700.500000000, A.D. 2025-Jan-25 00:00:00.0000, -3.447490982918199E+08, -1.151301405056312E+08, 8.335290095005995E+07,
2460707.500000000, A.D. 2025-Feb-01 00:00:00.0000, -3.418952717179516E+08, -1.273391663955336E+08, 8.227161480183312E+07,
2460714.500000000, A.D. 2025-Feb-08 00:00:00.0000, -3.387242059884626E+08, -1.394301096144219E+08, 8.111398884042932E+07,
2460721.500000000, A.D. 2025-Feb-15 00:00:00.0000, -3.352417761919968E+08, -1.513929598714870E+08, 7.988179989814332E+07,
$$EOE